[
    {
        "Altitude(m)": 604983.0529509394,
        "Argument of Periapsis(deg)": 0.0,
        "Eccentricity": 0.0,
        "Inclination(deg)": 60.0,
        "Latitude(deg)": -0.0926326764715289,
        "Longitude(deg)": 10.083916551017536,
        "Mean Anomaly(deg)": -179.99999999999994,
        "RAAN(deg)": 290.0,
        "Satellite Name": "Test1 1287",
        "Satellite Number": 1287,
        "Semi-Major Axis(m)": 6980739.136638005,
        "Time(s)": 0
    },
    {
        "Altitude(m)": 605055.3323010027,
        "Argument of Periapsis(deg)": 0.00010418945913296404,
        "Eccentricity": 0.0,
        "Inclination(deg)": 60.0,
        "Latitude(deg)": -0.633042111124034,
        "Longitude(deg)": 10.35204233701626,
        "Mean Anomaly(deg)": -179.37989385453818,
        "RAAN(deg)": 289.99957995086027,
        "Satellite Name": "Test1 1287",
        "Satellite Number": 1287,
        "Semi-Major Axis(m)": 6980739.136638005,
        "Time(s)": 10
    }
]